{"type": "FeatureCollection", "features": [ {"type": "Feature", "properties": {"norad_id": 31326, "name": "FENGYUN 1C DEB", "group": "fengyun-1c-debris", "lat": 4.034798073852242, "lon": 51.377821983755005, "alt_km": 576.0490903048085, "timestamp": "2025-12-14T11:29:50.342204+00:00", "meta": {"OBJECT_NAME": "FENGYUN 1C DEB", "OBJECT_ID": "1999-025BQE", "EPOCH": "2025-11-25T14:42:32.298048", "MEAN_MOTION": 14.96360134, "ECCENTRICITY": 0.00187059, "INCLINATION": 99.013, "RA_OF_ASC_NODE": 208.9742, "ARG_OF_PERICENTER": 1.9794, "MEAN_ANOMALY": 358.1494, "EPHEMERIS_TYPE": 0, "CLASSIFICATION_TYPE": "U", "NORAD_CAT_ID": 31326, "ELEMENT_SET_NO": 999, "REV_AT_EPOCH": 73489, "BSTAR": 0.0084230344, "MEAN_MOTION_DOT": 0.00096893, "MEAN_MOTION_DDOT": 0}, "tle": {"line1": "1 31326U 99025BQE 25329.61287382  .00096893  00000+0  84230-2 0  9991", "line2": "2 31326  99.0130 208.9742 0018705   1.9794 358.1494 14.96360134734894"}}, "geometry": {"type": "Point", "coordinates": [51.377821983755005, 4.034798073852242]}}, {"type": "Feature", "properties": {"norad_id": 31327, "name": "FENGYUN 1C DEB", "group": "fengyun-1c-debris", "lat": 49.752332725134856, "lon": -20.61153874262592, "alt_km": 486.82216142123434, "timestamp": "2025-12-14T11:29:50.342215+00:00", "meta": {"OBJECT_NAME": "FENGYUN 1C DEB", "OBJECT_ID": "1999-025BQF", "EPOCH": "2025-12-13T11:26:18.278016", "MEAN_MOTION": 15.10972508, "ECCENTRICITY": 0.00865713, "INCLINATION": 98.9852, "RA_OF_ASC_NODE": 348.9856, "ARG_OF_PERICENTER": 7.7302, "MEAN_ANOMALY": 352.5234, "EPHEMERIS_TYPE": 0, "CLASSIFICATION_TYPE": "U", "NORAD_CAT_ID": 31327, "ELEMENT_SET_NO": 999, "REV_AT_EPOCH": 110, "BSTAR": 0.0025119037, "MEAN_MOTION_DOT": 0.00046026, "MEAN_MOTION_DDOT": 0}, "tle": {"line1": "1 31327U 99025BQF 25347.47660044  .00046026  00000+0  25119-2 0  9990", "line2": "2 31327  98.9852 348.9856 0086571   7.7302 352.5234 15.10972508  1102"}}, "geometry": {"type": "Point", "coordinates": [-20.61153874262592, 49.752332725134856]}}, {"type": "Feature", "properties": {"norad_id": 31328, "name": "FENGYUN 1C DEB", "group": "fengyun-1c-debris", "lat": 61.18430000945305, "lon": -53.542884681284825, "alt_km": 852.7309481844113, "timestamp": "2025-12-14T11:29:50.342225+00:00", "meta": {"OBJECT_NAME": "FENGYUN 1C DEB", "OBJECT_ID": "1999-025BQG", "EPOCH": "2025-12-12T08:47:04.591104", "MEAN_MOTION": 14.28944572, "ECCENTRICITY": 0.01035932, "INCLINATION": 98.4833, "RA_OF_ASC_NODE": 320.1432, "ARG_OF_PERICENTER": 217.5445, "MEAN_ANOMALY": 141.8472, "EPHEMERIS_TYPE": 0, "CLASSIFICATION_TYPE": "U", "NORAD_CAT_ID": 31328, "ELEMENT_SET_NO": 999, "REV_AT_EPOCH": 97457, "BSTAR": 0.00012675973, "MEAN_MOTION_DOT": 2.96e-06, "MEAN_MOTION_DDOT": 0}, "tle": {"line1": "1 31328U 99025BQG 25346.36602536  .00000296  00000+0  12676-3 0  9994", "line2": "2 31328  98.4833 320.1432 0103593 217.5445 141.8472 14.28944572974573"}}, "geometry": {"type": "Point", "coordinates": [-53.542884681284825, 61.18430000945305]}}, {"type": "Feature", "properties": {"norad_id": 31330, "name": "FENGYUN 1C DEB", "group": "fengyun-1c-debris", "lat": -21.807709338633018, "lon": 156.7873738935058, "alt_km": 538.1788577343887, "timestamp": "2025-12-14T11:29:50.342235+00:00", "meta": {"OBJECT_NAME": "FENGYUN 1C DEB", "OBJECT_ID": "1999-025BQJ", "EPOCH": "2025-12-13T10:17:59.157024", "MEAN_MOTION": 15.10992329, "ECCENTRICITY": 0.00046076, "INCLINATION": 98.8853, "RA_OF_ASC_NODE": 151.98, "ARG_OF_PERICENTER": 225.6133, "MEAN_ANOMALY": 163.781, "EPHEMERIS_TYPE": 0, "CLASSIFICATION_TYPE": "U", "NORAD_CAT_ID": 31330, "ELEMENT_SET_NO": 999, "REV_AT_EPOCH": 97140, "BSTAR": 0.016076755, "MEAN_MOTION_DOT": 0.00278919, "MEAN_MOTION_DDOT": 0}, "tle": {"line1": "1 31330U 99025BQJ 25347.42915691  .00278919  00000+0  16077-1 0  9990", "line2": "2 31330  98.8853 151.9800 0004607 225.6133 163.7810 15.10992329971404"}}, "geometry": {"type": "Point", "coordinates": [156.7873738935058, -21.807709338633018]}}, {"type": "Feature", "properties": {"norad_id": 31331, "name": "FENGYUN 1C DEB", "group": "fengyun-1c-debris", "lat": -45.329246100511256, "lon": -174.83093388912323, "alt_km": 872.4301657995657, "timestamp": "2025-12-14T11:29:50.342245+00:00", "meta": {"OBJECT_NAME": "FENGYUN 1C DEB", "OBJECT_ID": "1999-025BQK", "EPOCH": "2025-12-11T06:59:13.035840", "MEAN_MOTION": 14.00618538, "ECCENTRICITY": 0.005317, "INCLINATION": 98.8724, "RA_OF_ASC_NODE": 11.1656, "ARG_OF_PERICENTER": 186.5995, "MEAN_ANOMALY": 173.4476, "EPHEMERIS_TYPE": 0, "CLASSIFICATION_TYPE": "U", "NORAD_CAT_ID": 31331, "ELEMENT_SET_NO": 999, "REV_AT_EPOCH": 63836, "BSTAR": 0.00045408515, "MEAN_MOTION_DOT": 6.41e-06, "MEAN_MOTION_DDOT": 0}, "tle": {"line1": "1 31331U 99025BQK 25345.29112310  .00000641  00000+0  45409-3 0  9999", "line2": "2 31331  98.8724  11.1656 0053170 186.5995 173.4476 14.00618538638364"}}, "geometry": {"type": "Point", "coordinates": [-174.83093388912323, -45.329246100511256]}}, {"type": "Feature", "properties": {"norad_id": 31332, "name": "FENGYUN 1C DEB", "group": "fengyun-1c-debris", "lat": 64.13262902357276, "lon": -162.81622548485444, "alt_km": 849.1887421271795, "timestamp": "2025-12-14T11:29:50.342255+00:00", "meta": {"OBJECT_NAME": "FENGYUN 1C DEB", "OBJECT_ID": "1999-025BQL", "EPOCH": "2025-12-12T23:23:00.295872", "MEAN_MOTION": 14.11844116, "ECCENTRICITY": 0.00498817, "INCLINATION": 98.7056, "RA_OF_ASC_NODE": 357.3023, "ARG_OF_PERICENTER": 24.5239, "MEAN_ANOMALY": 5.4896, "EPHEMERIS_TYPE": 0, "CLASSIFICATION_TYPE": "U", "NORAD_CAT_ID": 31332, "ELEMENT_SET_NO": 999, "REV_AT_EPOCH": 95975, "BSTAR": 0.0014459486, "MEAN_MOTION_DOT": 2.628e-05, "MEAN_MOTION_DDOT": 0}, "tle": {"line1": "1 31332U 99025BQL 25346.97430898  .00002628  00000+0  14459-2 0  9997", "line2": "2 31332  98.7056 357.3023 0049881  24.5239   5.4896 14.11844116959755"}}, "geometry": {"type": "Point", "coordinates": [-162.81622548485444, 64.13262902357276]}}, {"type": "Feature", "properties": {"norad_id": 31333, "name": "FENGYUN 1C DEB", "group": "fengyun-1c-debris", "lat": 60.05810348029475, "lon": -11.928196011342333, "alt_km": 742.7059077645572, "timestamp": "2025-12-14T11:29:50.342265+00:00", "meta": {"OBJECT_NAME": "FENGYUN 1C DEB", "OBJECT_ID": "1999-025BQM", "EPOCH": "2025-12-12T18:49:01.084512", "MEAN_MOTION": 14.26541083, "ECCENTRICITY": 0.00986515, "INCLINATION": 98.4285, "RA_OF_ASC_NODE": 1.3563, "ARG_OF_PERICENTER": 26.4018, "MEAN_ANOMALY": 334.2142, "EPHEMERIS_TYPE": 0, "CLASSIFICATION_TYPE": "U", "NORAD_CAT_ID": 31333, "ELEMENT_SET_NO": 999, "REV_AT_EPOCH": 96592, "BSTAR": 0.0010969525, "MEAN_MOTION_DOT": 2.744e-05, "MEAN_MOTION_DDOT": 0}, "tle": {"line1": "1 31333U 99025BQM 25346.78404033  .00002744  00000+0  10970-2 0  9992", "line2": "2 31333  98.4285   1.3563 0098651  26.4018 334.2142 14.26541083965923"}}, "geometry": {"type": "Point", "coordinates": [-11.928196011342333, 60.05810348029475]}}, {"type": "Feature", "properties": {"norad_id": 31336, "name": "FENGYUN 1C DEB", "group": "fengyun-1c-debris", "lat": -62.55490256746964, "lon": -152.98027149248176, "alt_km": 813.0164802374711, "timestamp": "2025-12-14T11:29:50.342275+00:00", "meta": {"OBJECT_NAME": "FENGYUN 1C DEB", "OBJECT_ID": "1999-025BQQ", "EPOCH": "2025-12-12T15:40:36.276096", "MEAN_MOTION": 14.38700612, "ECCENTRICITY": 0.00939779, "INCLINATION": 98.4653, "RA_OF_ASC_NODE": 41.8827, "ARG_OF_PERICENTER": 118.8628, "MEAN_ANOMALY": 32.7927, "EPHEMERIS_TYPE": 0, "CLASSIFICATION_TYPE": "U", "NORAD_CAT_ID": 31336, "ELEMENT_SET_NO": 999, "REV_AT_EPOCH": 97789, "BSTAR": 0.00049475681, "MEAN_MOTION_DOT": 1.553e-05, "MEAN_MOTION_DDOT": 0}, "tle": {"line1": "1 31336U 99025BQQ 25346.65319764  .00001553  00000+0  49476-3 0  9998", "line2": "2 31336  98.4653  41.8827 0093977 118.8628  32.7927 14.38700612977894"}}, "geometry": {"type": "Point", "coordinates": [-152.98027149248176, -62.55490256746964]}}, {"type": "Feature", "properties": {"norad_id": 31338, "name": "FENGYUN 1C DEB", "group": "fengyun-1c-debris", "lat": 63.99791121804052, "lon": 170.1324785016436, "alt_km": 776.1061960512498, "timestamp": "2025-12-14T11:29:50.342286+00:00", "meta": {"OBJECT_NAME": "FENGYUN 1C DEB", "OBJECT_ID": "1999-025BQS", "EPOCH": "2025-12-12T06:47:42.135648", "MEAN_MOTION": 14.20717591, "ECCENTRICITY": 0.00716141, "INCLINATION": 98.7168, "RA_OF_ASC_NODE": 186.2993, "ARG_OF_PERICENTER": 110.4179, "MEAN_ANOMALY": 250.4707, "EPHEMERIS_TYPE": 0, "CLASSIFICATION_TYPE": "U", "NORAD_CAT_ID": 31338, "ELEMENT_SET_NO": 999, "REV_AT_EPOCH": 63651, "BSTAR": 0.0038476398, "MEAN_MOTION_DOT": 8.479e-05, "MEAN_MOTION_DDOT": 0}, "tle": {"line1": "1 31338U 99025BQS 25346.28312657  .00008479  00000+0  38476-2 0  9994", "line2": "2 31338  98.7168 186.2993 0071614 110.4179 250.4707 14.20717591636512"}}, "geometry": {"type": "Point", "coordinates": [170.1324785016436, 63.99791121804052]}}, {"type": "Feature", "properties": {"norad_id": 31339, "name": "FENGYUN 1C DEB", "group": "fengyun-1c-debris", "lat": 34.83190899627504, "lon": -1.0330337160282417, "alt_km": 835.392181990982, "timestamp": "2025-12-14T11:29:50.342296+00:00", "meta": {"OBJECT_NAME": "FENGYUN 1C DEB", "OBJECT_ID": "1999-025BQT", "EPOCH": "2025-12-13T08:07:29.760096", "MEAN_MOTION": 14.12174065, "ECCENTRICITY": 0.00742926, "INCLINATION": 98.7144, "RA_OF_ASC_NODE": 3.9849, "ARG_OF_PERICENTER": 323.5099, "MEAN_ANOMALY": 36.1023, "EPHEMERIS_TYPE": 0, "CLASSIFICATION_TYPE": "U", "NORAD_CAT_ID": 31339, "ELEMENT_SET_NO": 999, "REV_AT_EPOCH": 95686, "BSTAR": 0.0015110277, "MEAN_MOTION_DOT": 2.805e-05, "MEAN_MOTION_DDOT": 0}, "tle": {"line1": "1 31339U 99025BQT 25347.33853889  .00002805  00000+0  15110-2 0  9996", "line2": "2 31339  98.7144   3.9849 0074292 323.5099  36.1023 14.12174065956862"}}, "geometry": {"type": "Point", "coordinates": [-1.0330337160282417, 34.83190899627504]}}]}